*******************************************************************************
Ephemeris / WWW_USER Wed Mar 14 15:39:48 2018 Pasadena, USA      / Horizons    
*******************************************************************************
Target body name: Metis (516)                     {source: jup310}
Center body name: Solar System Barycenter (0)     {source: DE431mx}
Center-site name: BODY CENTER
*******************************************************************************
Start time      : A.D. 2000-Jan-01 00:00:00.0000 TDB
Stop  time      : A.D. 2001-Jan-01 00:00:00.0000 TDB
Step-size       : 7200 minutes
*******************************************************************************
Center geodetic : 0.00000000,0.00000000,0.0000000 {E-lon(deg),Lat(deg),Alt(km)}
Center cylindric: 0.00000000,0.00000000,0.0000000 {E-lon(deg),Dxy(km),Dz(km)}
Center radii    : (undefined)                                                  
Output units    : AU-D                                                         
Output type     : GEOMETRIC cartesian states
Output format   : 2 (position and velocity)
Reference frame : ICRF/J2000.0                                                 
Coordinate systm: Ecliptic and Mean Equinox of Reference Epoch                 
*******************************************************************************
JDTDB
   X     Y     Z
   VX    VY    VZ
*******************************************************************************
$$SOE
2451754.500000000 = A.D. 2000-Jul-29 00:00:00.0000 TDB 
   2.846296680308662E+00  4.107891561512600E+00 -8.069801710819986E-02
  -2.160621828224859E-02  1.457639626760239E-02  2.521576313779055E-04
2451759.500000000 = A.D. 2000-Aug-03 00:00:00.0000 TDB 
   2.814892620328432E+00  4.130916622799583E+00 -8.009002592189973E-02
  -1.884015425654189E-02  1.787795887874939E-02  4.123943757478989E-04
2451764.500000000 = A.D. 2000-Aug-08 00:00:00.0000 TDB 
   2.783287262347190E+00  4.153664887403546E+00 -7.947903240778978E-02
  -1.535977523813882E-02  2.040965183805090E-02  5.561997023897890E-04
2451769.500000000 = A.D. 2000-Aug-13 00:00:00.0000 TDB 
   2.751472906489479E+00  4.176147683221097E+00 -7.886474832299994E-02
  -1.137871729120474E-02  2.203110177587337E-02  6.756795397163215E-04
2451774.500000000 = A.D. 2000-Aug-18 00:00:00.0000 TDB 
   2.719450014997557E+00  4.198369023082679E+00 -7.824702138169322E-02
  -7.118164105520830E-03  2.266252117502587E-02  7.647199289267280E-04
2451779.500000000 = A.D. 2000-Aug-23 00:00:00.0000 TDB 
   2.687219365528294E+00  4.220339447157293E+00 -7.762547983229993E-02
  -2.809933579926376E-03  2.226424688548566E-02  8.182531175868723E-04
2451784.500000000 = A.D. 2000-Aug-28 00:00:00.0000 TDB 
   2.654780679869778E+00  4.242073075034832E+00 -7.699963338040422E-02
   1.301022417757614E-03  2.084077666592418E-02  8.324420823922973E-04
2451789.500000000 = A.D. 2000-Sep-02 00:00:00.0000 TDB 
   2.622141349348168E+00  4.263577875071403E+00 -7.636912061306339E-02
   4.967487367789377E-03  1.846456266061397E-02  8.057628629348413E-04
2451794.500000000 = A.D. 2000-Sep-07 00:00:00.0000 TDB 
   2.589311276862210E+00  4.284860513406354E+00 -7.573360148359931E-02
   7.968192097025172E-03  1.527508346691004E-02  7.395367541140996E-04
2451799.500000000 = A.D. 2000-Sep-12 00:00:00.0000 TDB 
   2.556299755088906E+00  4.305932264315397E+00 -7.509258646159311E-02
   1.013162829601539E-02  1.146498693759123E-02  6.378833082956760E-04
2451804.500000000 = A.D. 2000-Sep-17 00:00:00.0000 TDB 
   2.523117827635761E+00  4.326798300701257E+00 -7.444578899568698E-02
   1.134450346397190E-02  7.250815821953012E-03  5.068874502731703E-04
2451809.500000000 = A.D. 2000-Sep-22 00:00:00.0000 TDB 
   2.489780362489269E+00  4.347455372486066E+00 -7.379315771438760E-02
   1.154626279115084E-02  2.858710106489928E-03  3.539746098924863E-04
2451814.500000000 = A.D. 2000-Sep-27 00:00:00.0000 TDB 
   2.456300247573654E+00  4.367906656215085E+00 -7.313444718275137E-02
   1.071204782889829E-02 -1.474136755928281E-03  1.876805191791912E-04
2451819.500000000 = A.D. 2000-Oct-02 00:00:00.0000 TDB 
   2.422688489642728E+00  4.388151737781030E+00 -7.246954652340733E-02
   8.873015641169392E-03 -5.498960052610421E-03  1.789322420651822E-05
2451824.500000000 = A.D. 2000-Oct-07 00:00:00.0000 TDB 
   2.388961221567897E+00  4.408179687160881E+00 -7.179863688005469E-02
   6.136592825291051E-03 -8.971778513600653E-03 -1.446303905682464E-04
2451829.500000000 = A.D. 2000-Oct-12 00:00:00.0000 TDB 
   2.355130337778910E+00  4.427982661676529E+00 -7.112185237210834E-02
   2.670564520508383E-03 -1.169494631131832E-02 -2.900512912316279E-04
2451834.500000000 = A.D. 2000-Oct-17 00:00:00.0000 TDB 
   2.321202557136810E+00  4.447554161975584E+00 -7.043933792315808E-02
  -1.322045562032946E-03 -1.352873848608102E-02 -4.103137739233439E-04
2451839.500000000 = A.D. 2000-Oct-22 00:00:00.0000 TDB 
   2.287185675851398E+00  4.466880749442547E+00 -6.975148289016758E-02
  -5.623001286942243E-03 -1.438039553485855E-02 -4.990842761737234E-04
2451844.500000000 = A.D. 2000-Oct-27 00:00:00.0000 TDB 
   2.253084894159582E+00  4.485947595400757E+00 -6.905876570250416E-02
  -9.998946442523101E-03 -1.420127005594675E-02 -5.515947874219807E-04
2451849.500000000 = A.D. 2000-Nov-01 00:00:00.0000 TDB 
   2.218900632623504E+00  4.504746935278400E+00 -6.836149858929198E-02
  -1.420451056222979E-02 -1.299104779308786E-02 -5.647485270454982E-04
2451854.500000000 = A.D. 2000-Nov-06 00:00:00.0000 TDB 
   2.184630462004847E+00  4.523266607508283E+00 -6.766020454109198E-02
  -1.798958544113471E-02 -1.081684035687140E-02 -5.377548135451255E-04
2451859.500000000 = A.D. 2000-Nov-11 00:00:00.0000 TDB 
   2.150272792301156E+00  4.541489746580139E+00 -6.695556506358145E-02
  -2.112586439203149E-02 -7.814462392225063E-03 -4.724993096418286E-04
2451864.500000000 = A.D. 2000-Nov-16 00:00:00.0000 TDB 
   2.115820804583094E+00  4.559410822303115E+00 -6.624795400182562E-02
  -2.344480563483894E-02 -4.171533940224027E-03 -3.733628318382744E-04
2451869.500000000 = A.D. 2000-Nov-21 00:00:00.0000 TDB 
   2.081264492650282E+00  4.577025352863415E+00 -6.553774127235916E-02
  -2.483011136760279E-02 -9.812803809035211E-05 -2.460184897181404E-04
2451874.500000000 = A.D. 2000-Nov-26 00:00:00.0000 TDB 
   2.046598032085897E+00  4.594324529583317E+00 -6.482539095079479E-02
  -2.520408054485041E-02  4.186247336469774E-03 -9.685882402606570E-05
2451879.500000000 = A.D. 2000-Dec-01 00:00:00.0000 TDB 
   2.011812143233600E+00  4.611307302578727E+00 -6.411113321213352E-02
  -2.453495239817540E-02  8.438526387413140E-03  6.635615390195761E-05
2451884.500000000 = A.D. 2000-Dec-06 00:00:00.0000 TDB 
   1.976895419840395E+00  4.627978697198672E+00 -6.339499374460036E-02
  -2.285394106167656E-02  1.240340277392166E-02  2.345126785773872E-04
2451889.500000000 = A.D. 2000-Dec-11 00:00:00.0000 TDB 
   1.941839540619923E+00  4.644340319170450E+00 -6.267707442059452E-02
  -2.026371125440339E-02  1.584054977795840E-02  3.978732948171212E-04
2451894.500000000 = A.D. 2000-Dec-16 00:00:00.0000 TDB 
   1.906638154511461E+00  4.660395193463781E+00 -6.195738188140306E-02
  -1.692351813749440E-02  1.855039185154822E-02  5.471130315472302E-04
2451899.500000000 = A.D. 2000-Dec-21 00:00:00.0000 TDB 
   1.871285029564366E+00  4.676156624587045E+00 -6.123556413818948E-02
  -1.303217209992733E-02  2.038764694115101E-02  6.740234664883823E-04
2451904.500000000 = A.D. 2000-Dec-26 00:00:00.0000 TDB 
   1.835776126583643E+00  4.691633954351981E+00 -6.051137798142810E-02
  -8.802987903172717E-03  2.125149770434567E-02  7.715732176025317E-04
2451909.500000000 = A.D. 2000-Dec-31 00:00:00.0000 TDB 
   1.800113886289128E+00  4.706832362374634E+00 -5.978464138794937E-02
  -4.464219488020865E-03  2.108385766587876E-02  8.338569436548635E-04
